name,address,latitude,longitude
역삼아레나빌딩  ,서울특별시 강남구 언주로 425,37.4788804,127.0560061
논현역사거리  ,서울특별시 강남구 강남대로 538,37.5119737,127.0210057
신사역성일빌딩  ,서울특별시 강남구 강남대로 584,37.5119737,127.0210057
국기원사거리  ,서울특별시 강남구 테헤란로 125,37.5069402,127.0565359
대치재경빌딩R  ,서울특별시 강남구 남부순환로 2947,37.494561,127.062728
봉은사역  ,서울특별시 강남구 봉은사로 619,37.5135682,127.05643
압구정윤성빌딩  ,서울특별시 강남구 논현로 834,37.522873649999994,127.02857242328601
코엑스별마당  ,서울특별시 강남구 영동대로 513,37.5118203,127.0591391
삼성역섬유센터R  ,서울특별시 강남구 테헤란로 518,37.5069402,127.0565359
압구정R  ,서울특별시 강남구 언주로 861,37.4788804,127.0560061
수서역R  ,서울특별시 강남구 광평로 281,37.484806,127.0761698
양재강남빌딩R  ,서울특별시 강남구 남부순환로 2621,37.485271299999994,127.03667786513964
선릉동신빌딩R  ,서울특별시 강남구 테헤란로 409,37.5069402,127.0565359
봉은사로선정릉  ,서울특별시 강남구 봉은사로 446,37.5135682,127.05643
강남오거리  ,서울특별시 강남구 봉은사로2길 39,37.5028453,127.0261846
스타필드코엑스몰R  ,서울특별시 강남구 영동대로 513,37.5118203,127.0591391
강남구청정문  ,서울특별시 강남구 학동로 419,37.5199698,127.056947
도곡공원  ,서울특별시 강남구 도곡로 205,37.49418685,127.049732
강남R  ,서울특별시 강남구 강남대로 390,37.5119737,127.0210057
대치은마사거리  ,서울특별시 강남구 도곡로 457,37.4989545,127.0603126
청담영동대로  ,서울특별시 강남구 영동대로 720,37.5199698,127.056947
압구정  ,서울특별시 강남구 압구정로30길 17,37.524714,127.0290956
신사가로수  ,서울특별시 강남구 가로수길 59,37.5209505,127.0228873
청담스타R  ,서울특별시 강남구 도산대로57길 24,37.5252947,127.0417091
강남우성  ,서울특별시 강남구 강남대로 328,37.5119737,127.0210057
학동사거리  ,서울특별시 강남구 도산대로 328,37.51962,127.0281081
대치사거리  ,서울특별시 강남구 삼성로 402,37.4856604,127.06848119991864
포스코사거리  ,서울특별시 강남구 테헤란로 505,37.5069402,127.0565359
을지병원사거리  ,서울특별시 강남구 논현로 752,37.5025503,127.0361212
신사역  ,서울특별시 강남구 도산대로 108,37.51962,127.0281081
도곡역  ,서울특별시 강남구 남부순환로 2909,37.4920442,127.0573092
서울세관사거리  ,서울특별시 강남구 언주로 650,37.4788804,127.0560061
청담사거리  ,서울특별시 강남구 도산대로 458,37.5238456,127.0467767
한티역  ,"서울특별시 강남구 도곡로 408,",37.4966164,127.0551391
역삼초교사거리  ,서울특별시 강남구 역삼로 123,37.4951535,127.036949
코엑스몰  ,서울특별시 강남구 영동대로 513,37.5118203,127.0591391
가로수길  ,"서울특별시 강남구 논현로175길 94,",37.5227183,127.0210209
역삼대로  ,"서울특별시 강남구 테헤란로 211,",37.5069402,127.0565359
역삼포스코  ,"서울특별시 강남구 테헤란로 134,",37.5069402,127.0565359
강남대로  ,"서울특별시 강남구 강남대로 456,",37.5032213,127.0255351
청담  ,"서울특별시 강남구 도산대로 532,",37.51962,127.0281081
삼성도심공항  ,서울특별시 강남구 테헤란로87길 33,37.5102562,127.0581011
삼성교  ,"서울특별시 강남구 영동대로86길 12,",37.5079009,127.0652472
학동역  ,서울특별시 강남구 논현로 704,37.5025503,127.0361212
대치  ,서울특별시 강남구 도곡로 511,37.4996032,127.0623044
SSG마켓도곡R  ,"서울특별시 강남구 언주로30길 57,",37.4892992,127.0541634
삼성  ,"서울특별시 강남구 테헤란로 443,",37.5069402,127.0565359
선릉세화빌딩  ,서울특별시 강남구 테헤란로64길 18,37.5039306,127.0513461
압구정역  ,"서울특별시 강남구 압구정로 170,",37.5240426,127.0221284
압구정로  ,서울특별시 강남구 압구정로42길 32,37.5240822,127.034101
구역삼사거리  ,서울특별시 강남구 논현로 401,37.5025503,127.0361212
큰길타워  ,"서울특별시 강남구 테헤란로 223,",37.5069402,127.0565359
강남구청역  ,"서울특별시 강남구 선릉로 669,",37.523126,127.0391626
대치역  ,서울특별시 강남구 남부순환로 2936,37.4933484,127.0618811053215
포이  ,서울특별시 강남구 논현로 88,37.5025503,127.0361212
아크플레이스  ,서울특별시 강남구 테헤란로 142,37.5069402,127.0565359
학여울역  ,서울특별시 강남구 영동대로 215,37.49798545,127.06854191552031
선정릉역  ,서울특별시 강남구 봉은사로 407,37.5135682,127.05643
삼성현대힐  ,서울특별시 강남구 삼성로 605,37.5067233,127.0566608
GS타워  ,서울특별시 강남구 논현로 508,37.5025503,127.0361212
압구정미소  ,서울특별시 강남구 논현로 841,37.5025503,127.0361212
선릉역  ,"서울특별시 강남구 테헤란로 334,",37.50386695,127.04847265
코엑스사거리  ,서울특별시 강남구 영동대로 616,37.5199698,127.056947
역삼럭키  ,서울특별시 강남구 도곡로 183,37.5001816,127.0648724
차병원사거리  ,"서울특별시 강남구 봉은사로 213,",37.5135682,127.05643
청담공원  ,서울특별시 강남구 학동로 506,37.5199698,127.056947
신압구정  ,서울특별시 강남구 언주로174길 29,37.5284522,127.033757
아크로힐스논현  ,"서울특별시 강남구 봉은사로 304,",37.5135682,127.05643
강남비젼타워  ,"서울특별시 강남구 테헤란로2길 27,",37.4965901,127.0295651
역삼역  ,"서울특별시 강남구 테헤란로 145,",37.5069402,127.0565359
압구정로데오역  ,"서울특별시 강남구 선릉로 836,",37.523126,127.0391626
르네상스사거리  ,서울특별시 강남구 테헤란로 306,37.5069402,127.0565359
포스코  ,"서울특별시 강남구 삼성로86길 7,",37.5059317,127.0588595
선릉로  ,"서울특별시 강남구 선릉로93길 22,",37.5048128,127.0467862
논현힐탑  ,서울특별시 강남구 논현로 648,37.5025503,127.0361212
도산가로수길  ,"서울특별시 강남구 도산대로 134,",37.51962,127.0281081
대치한티  ,서울특별시 강남구 선릉로 324,37.523126,127.0391626
수서역사거리  ,서울특별시 강남구 광평로 280,37.487311,127.1030943
코엑스아셈타워  ,서울특별시 강남구 영동대로 517,37.5199698,127.056947
센터필드R  ,서울특별시 강남구 테헤란로 231,37.5069402,127.0565359
도산사거리  ,서울특별시 강남구 언주로 727,37.4788804,127.0560061
강남세곡  ,서울특별시 강남구 헌릉로569길 18,37.4670378,127.0978252
대치삼성프라자  ,서울특별시 강남구 영동대로 237,37.5006039,127.0670254
강남역신분당역사  ,서울특별시 강남구 강남대로 396,37.5119737,127.0210057
삼성역  ,서울특별시 강남구 테헤란로 620,37.5069402,127.0565359
테헤란로아남타워  ,서울특별시 강남구 테헤란로 311,37.5037491,127.0448199
강남논현  ,서울특별시 강남구 강남대로 512,37.5119737,127.0210057
삼성동  ,서울특별시 강남구 영동대로96길 12,37.510748500000005,127.06359359999999
역삼이마트  ,서울특별시 강남구 역삼로 310,37.4951535,127.036949
미아뉴타운  ,서울특별시 강북구 삼양로 161,37.6184751,127.0212396
강북구청사거리  ,서울특별시 강북구 도봉로 365,37.6198903,127.0288685
미아사거리역  ,서울특별시 강북구 도봉로 32,37.6198903,127.0288685
수유역  ,서울특별시 강북구 도봉로 342,37.6198903,127.0288685
미아역  ,서울특별시 강북구 도봉로 196,37.6198903,127.0288685
파라스파라서울  ,서울특별시 강북구 삼양로 689,37.6622213,127.013076
발산역사거리  ,서울특별시 강서구 공항대로 248,37.5611331,126.8122158
마곡역  ,서울특별시 강서구 공항대로 168,37.5611331,126.8122158
우장산역  ,서울특별시 강서구 강서로 267,37.5497037,126.8360897
마곡사이언스타워R  ,서울특별시 강서구 마곡동로 62,37.5561708,126.8328521
방화DT  ,서울특별시 강서구 방화대로 375,37.577477,126.8167031
마곡나루역  ,서울특별시 강서구 마곡중앙로 161-17,37.5599103,126.8268895
마곡GMG  ,서울특별시 강서구 마곡중앙6로 16,37.5601401,126.8356108
가양역  ,서울특별시 강서구 양천로 476,37.5733438,126.8167715
화곡DT  ,서울특별시 강서구 등촌로 57,37.5510315,126.8640406
양천향교역  ,서울특별시 강서구 강서로 463,37.5668483,126.8405844
화곡동  ,서울특별시 강서구 화곡로 142,37.5496816,126.84779
등촌  ,서울특별시 강서구 공항대로 329,37.55827755,126.84437119477363
염창역  ,서울특별시 강서구 공항대로 627,37.5472969,126.8745687
발산역  ,서울특별시 강서구 강서로 388,37.5602147,126.8391078
가양이마트  ,서울특별시 강서구 양천로 559,37.5733438,126.8167715
까치산역  ,서울특별시 강서구 강서로13길 3,37.5318519,126.8453269
화곡역8번출구  ,서울특별시 강서구 강서로 179,37.5292654,126.8481558
강서우장산  ,서울특별시 강서구 강서로 231,37.5292654,126.8481558
등촌대로  ,서울특별시 강서구 공항대로 543,37.5611331,126.8122158
가양역사거리  ,서울특별시 강서구 화곡로 416,37.5496816,126.84779
내발산  ,서울특별시 강서구 강서로 323,37.5292654,126.8481558
마곡웰튼  ,서울특별시 강서구 마곡중앙5로 22,37.5671609,126.8220048
김포공항DT  ,서울특별시 강서구 개화동로 517,37.5987756,126.810582
강서NC  ,서울특별시 강서구 강서로56길 17,37.5596199,126.838934
마곡나루공원  ,서울특별시 강서구 마곡중앙5로 47,37.5671609,126.8220048
강서구청사거리  ,서울특별시 강서구 화곡로 350,37.5496816,126.84779
낙성대역  ,서울특별시 관악구 남부순환로 1908,37.4777009,126.96121395882453
관악서울대입구R  ,서울특별시 관악구 관악로 158,37.47931845,126.9528247992159
신림DT  ,서울특별시 관악구 남부순환로 1419,37.4821966,126.9474016
서울대역  ,서울특별시 관악구 남부순환로 1817,37.4816144,126.9520441
낙성대DT  ,서울특별시 관악구 남부순환로 1948,37.4761494,126.9651315
사당  ,서울특별시 관악구 남부순환로 2082,37.4821966,126.9474016
보라매대교  ,서울특별시 관악구 보라매로3길 23,37.4914431,126.9254397
신림사거리  ,서울특별시 관악구 남부순환로 1619,37.4821966,126.9474016
신림  ,서울특별시 관악구 신림로 355-1,37.4709068,126.9419211
신림타임스트림  ,서울특별시 관악구 신림로 330,37.4838403,126.9301275
서울대입구역  ,서울특별시 관악구 남부순환로 1812,37.4811591,126.95131
봉천역  ,서울특별시 관악구 남부순환로 1730,37.4821966,126.9474016
건국대  ,서울특별시 광진구 능동로 117,37.5529046,127.0772581
어린이대공원역  ,서울특별시 광진구 능동로 243,37.5520304,127.07642
아차산역  ,서울특별시 광진구 천호대로 676,37.5566093,127.0806118
올림픽대교북단  ,서울특별시 광진구 광나루로 608,37.5439347,127.0927273
구의DT  ,서울특별시 광진구 광나루로 519,37.5439347,127.0927273
자양사거리  ,서울 광진구 아차산로 355,37.537373450000004,127.08264626068336
군자역  ,서울특별시 광진구 천호대로 548,37.5566093,127.0806118
광나루  ,"서울특별시 광진구 아차산로 607,",37.5461477,127.105331
건대스타시티  ,서울특별시 광진구 아차산로 262,37.5461477,127.105331
자양  ,서울특별시 광진구 능동로 50,37.5529046,127.0772581
건대입구  ,서울특별시 광진구 능동로 107,37.5529046,127.0772581
구의역  ,서울특별시 광진구 아차산로 373,37.5461477,127.105331
광장  ,서울특별시 광진구 아차산로 537-17,37.5461477,127.105331
건국클래식  ,서울특별시 광진구 능동로 90,37.53833375,127.07090505
건대후문  ,서울특별시 광진구 능동로 172,37.5529046,127.0772581
중곡역  ,서울특별시 광진구 능동로 400,37.5529046,127.0772581
자양이마트  ,서울특별시 광진구 아차산로 272,37.538418,127.07323878135787
뚝섬유원지역  ,서울특별시 광진구 능동로 18,37.5529046,127.0772581
군자사거리  ,서울특별시 광진구 천호대로 549,37.5566093,127.0806118
금천구청역  ,서울특별시 금천구 시흥대로73길 67,37.45593885,126.89567667264251
가산에스케이  ,서울특별시 금천구 가산디지털1로 171,37.46781,126.88714
독산사거리  ,서울특별시 금천구 시흥대로 426,37.4681984,126.8980298
금천시흥  ,서울특별시 금천구 시흥대로 164,37.448860100000005,126.90326799249004
가산디지털단지역  ,서울특별시 금천구 벚꽃로 298,37.4693216,126.8883347
금천독산  ,서울특별시 금천구 두산로 70,37.4703518,126.8926233
가산디지털  ,서울특별시 금천구 가산디지털1로 168,37.46781,126.88714
W-Mall  ,서울특별시 금천구 디지털로 188,37.4773613,126.88771096865983
마리오아울렛  ,서울특별시 금천구 벚꽃로 266,37.47847565,126.88518193821237
가산브이타워  ,서울특별시 금천구 가산디지털1로 128,37.46781,126.88714
가산그레이트  ,"서울특별시 금천구 디지털로9길 32,",37.48195,126.88525
독산역  ,서울특별시 금천구 가산디지털1로 16,37.46781,126.88714
가산현대아울렛  ,서울특별시 금천구 디지털로10길 9,37.4769457,126.8888314
월계역  ,서울특별시 노원구 초안산로2라길 26,37.6321433,127.0581182
월계트레이더스  ,서울특별시 노원구 마들로3길 15,37.626264,127.061951
상계초교사거리  ,서울특별시 노원구 노원로 449,37.6573,127.06643
공릉DT  ,서울특별시 노원구 동일로 1015,37.6242653,127.0734496
노원마들역  ,서울특별시 노원구 노원로 569,37.6573,127.06643
공릉역  ,서울특별시 노원구 동일로 1081,37.6242653,127.0734496
은행사거리  ,"서울특별시 노원구 중계로 217,",37.6506379,127.0779831
노원KT  ,"서울특별시 노원구 노해로 502,",37.6539346,127.0589604
광운대  ,서울특별시 노원구 석계로 104,37.62,127.06322
중계역  ,"서울특별시 노원구 동일로 1339,",37.6242653,127.0734496
노원역  ,서울특별시 노원구 동일로 1413,37.6242653,127.0734496
월계이마트  ,서울특별시 노원구 마들로3길 15,37.626264,127.061951
태릉입구역DT  ,서울특별시 노원구 화랑로 469,37.6239187,127.0907603
창동이마트  ,서울특별시 도봉구 노해로65길 4,37.652,127.0463641
쌍문역  ,서울특별시 도봉구 도봉로 480,37.6806064,127.0455927
쌍문도봉로  ,서울특별시 도봉구 도봉로 444,37.6806064,127.0455927
방학역  ,서울특별시 도봉구 도봉로 684,37.6806064,127.0455927
노량진동  ,서울특별시 동작구 노량진로 190,37.5125967,126.9543166
남성역  ,서울특별시 동작구 사당로 219,37.4946982,126.9608044
상도역  ,서울특별시 동작구 상도로37길 1,37.5003784,126.9508288
보라매공원R  ,서울특별시 동작구 보라매로5길 35,37.4927106,126.9248886
이수자이  ,서울특별시 동작구 사당로 300,37.4946982,126.9608044
노량진역  ,서울특별시 동작구 노량진로 134,37.5125967,126.9543166
신대방삼거리역  ,서울특별시 동작구 상도로 102,37.504630399999996,126.94753824964121
중앙대  ,서울특별시 동작구 흑석로 75-1,37.5044873,126.9500303
숭실대입구역  ,서울특별시 동작구 상도로 354,37.5050907,126.9407112
숭실대  ,서울특별시 동작구 사당로 4,37.483358,126.9759536
사당역  ,"서울특별시 동작구 동작대로 21,",37.5007662,126.9838687
서강대프라자  ,서울특별시 마포구 백범로 35,37.5521044,126.9409838739227
상암YTN  ,서울특별시 마포구 상암산로 76,37.5782114,126.8905855
마포용강동  ,서울특별시 마포구 토정로 295,37.5456852,126.9134603
홍대입구역사거리R  ,서울특별시 마포구 양화로 125,37.5511066,126.9158787
마포경찰서후문  ,서울특별시 마포구 마포대로 173-14,37.5379407,126.9434293
공덕  ,서울특별시 마포구 마포대로 130,37.5379407,126.9434293
합정폴리스R  ,서울특별시 마포구 양화로 45,37.5502395,126.9139625
홍대공항철도역  ,서울특별시 마포구 양화로 178,37.5575216,126.9251425
마포염리  ,서울특별시 마포구 독막로 311,37.5486323,126.9176676
서강광흥창역  ,서울특별시 마포구 서강로 69,37.5549534,126.9366361
합정  ,서울특별시 마포구 월드컵로1길 14,37.5495337,126.9116202
서강대흥역  ,서울특별시 마포구 백범로 89-5,37.5425511,126.9515951
서교동사거리  ,서울특별시 마포구 양화로 105,37.5511066,126.9158787
상암사보이시티  ,서울특별시 마포구 월드컵북로54길 17,37.5813028,126.889349
신촌오거리  ,서울특별시 마포구 신촌로16길 10,37.5541017,126.93424
상암디지털큐브  ,서울특별시 마포구 상암산로 34,37.5782114,126.8905855
상수역  ,서울특별시 마포구 독막로 88,37.5486323,126.9176676
공덕오거리  ,서울특별시 마포구 마포대로 86,37.5379407,126.9434293
서강대  ,서울특별시 마포구 백범로 23,37.5424849,126.9542078
상암MBC  ,서울특별시 마포구 성암로 267,37.581274300000004,126.89113231352732
홍대역  ,"서울특별시 마포구 양화로 165,",37.557127300000005,126.92360343053349
동교  ,"서울특별시 마포구 월드컵북로 22,",37.5610387,126.915841
애오개역  ,"서울특별시 마포구 마포대로 201,",37.5379407,126.9434293
상암DMC  ,"서울특별시 마포구 월드컵북로 375,",37.5610387,126.915841
마포일진빌딩  ,"서울특별시 마포구 마포대로 45,",37.5379407,126.9434293
마포아크로  ,서울특별시 마포구 마포대로 68,37.5413754,126.9490269
홍대삼거리  ,서울특별시 마포구 와우산로 64,37.550104,126.9231797
망원역  ,서울특별시 마포구 월드컵로 74,37.5558081,126.9106433
마포이마트  ,서울특별시 마포구 백범로 212,37.5424849,126.9542078
합정메세나몰  ,서울특별시 마포구 양화로 45,37.5502395,126.9139625
아현역대로  ,서울특별시 마포구 신촌로 262,37.5559339,126.9342848
디지털미디어시티역  ,서울특별시 마포구 성암로 179,37.5757777,126.9002134
홍대역8번출구  ,서울특별시 마포구 양화로 166,37.5568057,126.924209
합정푸르지오  ,서울특별시 마포구 월드컵로3길 14,37.5499821,126.9109938
망원한강공원  ,서울특별시 마포구 마포나루길 407,37.554876983477,126.89570366929
가재울뉴타운  ,서울특별시 서대문구 가재울미래로 2,37.5722359,126.9145218
남가좌사거리  ,서울특별시 서대문구 거북골로 84,37.5789414,126.9081221
신촌역  ,서울특별시 서대문구 신촌로 73,37.5552729,126.9367767
연희동  ,서울특별시 서대문구 연희로 97,37.5661095,126.9296422
아현역  ,서울특별시 서대문구 신촌로35길 10,37.5580649,126.9554001
홍제역  ,서울특별시 서대문구 통일로 451,37.5743387,126.9580677
연세백양로  ,서울특별시 서대문구 연세로 50,37.56777675,126.93939790990834
연희DT  ,서울특별시 서대문구 연희로 144,37.5661095,126.9296422
경기대  ,서울특별시 서대문구 충정로 53,37.5621631,126.9641641
신촌  ,서울특별시 서대문구 연세로 10-1,37.557264,126.9368915
이대R  ,서울특별시 서대문구 이화여대길 34,37.5591281,126.9429083
연세종합관  ,"서울특별시 서대문구 연세로 50,",37.56777675,126.93939790990834
이대ECC  ,서울특별시 서대문구 이화여대길 52,37.5643371,126.94689253689391
연대  ,서울특별시 서대문구 연세로 35,37.5600406,126.9369239
신촌아트레온  ,서울특별시 서대문구 신촌로 129,37.5552729,126.9367767
충정로역  ,서울특별시 서대문구 충정로 23,37.56101865,126.96287808854686
연대동문  ,서울특별시 서대문구 성산로 565,37.5641369,126.930416
신촌명물거리  ,"서울특별시 서대문구 명물길 24,",37.5580945,126.9381019
충정타워  ,"서울특별시 서대문구 서소문로 21,",37.5625568,126.9666111
북가좌DT  ,서울특별시 서대문구 응암로 85,37.5791969,126.9107681
현대신촌  ,서울특별시 서대문구 신촌로 83,37.5552729,126.9367767
방배로  ,서울특별시 서초구 방배로 52,37.4984328,126.9870608
강남교보타워R  ,서울특별시 서초구 강남대로 465,37.503955149999996,127.02404141128827
방배다이치빌딩  ,서울특별시 서초구 방배로 114,37.4984328,126.9870608
센트럴F1  ,서울특별시 서초구 신반포로 176,37.5049259,127.0040959
서초역이화빌딩  ,서울특별시 서초구 반포대로21길 3,37.4856312,127.007419
서초구청  ,서울특별시 서초구 남부순환로 2557,37.4795116,127.0106083
서초우성사거리  ,서울특별시 서초구 강남대로 343,37.4935291,127.0292808
이수역사거리  ,서울특별시 서초구 서초대로 3-4,37.4979756,127.0274773
강남대로신사  ,서울특별시 서초구 강남대로 595,37.5034796,127.0248247
서울고속터미널  ,서울특별시 서초구 신반포로 194,37.5048617,127.0009917
강남대로논현R  ,서울특별시 서초구 강남대로85길 5,37.5074187,127.0221136
방배  ,서울특별시 서초구 방배로 211,37.4984328,126.9870608
방배카페거리  ,서울특별시 서초구 방배중앙로 162,37.4980529,126.9850847
서초법원  ,서울특별시 서초구 서초대로 274,37.4979756,127.0274773
청계산입구역  ,서울특별시 서초구 청계산로 203,37.4561322,127.0491707
사당로데오  ,서울특별시 서초구 방배천로 5-4,37.487603,126.9852537
파미에파크R  ,서울특별시 서초구 사평대로 205,37.4980708,126.9896028
교대역  ,서울특별시 서초구 서초중앙로 138,37.4858131,127.0157906
양재역  ,서울특별시 서초구 강남대로 202,37.5034796,127.0248247
논현역  ,서울특별시 서초구 강남대로 557,37.5034796,127.0248247
이수역  ,서울특별시 서초구 동작대로 112,37.4983322,126.9844741
내방역  ,서울특별시 서초구 방배로 184,37.4984328,126.9870608
서초파라곤  ,서울특별시 서초구 서초대로74길 29,37.4965785,127.0263396
서울아트센터  ,서울특별시 서초구 남부순환로 2395,37.4795116,127.0106083
서초중앙로  ,서울특별시 서초구 서초중앙로 225,37.4858131,127.0157906
센트럴시티  ,서울특별시 서초구 신반포로 176,37.5049259,127.0040959
강남삼성타운  ,서울특별시 서초구 서초대로78길 24,37.4961675,127.0276682
방배역  ,서울특별시 서초구 방배로 84,37.4984328,126.9870608
반포역  ,서울특별시 서초구 신반포로 257,37.5048617,127.0009917
남부터미널  ,"서울특별시 서초구 서초중앙로 26,",37.4858131,127.0157906
뉴코아강남  ,서울특별시 서초구 잠원로 69,37.5116593,127.0066907
강남2  ,"서울특별시 서초구 서초대로77길 27,",37.50012605,127.02545601077304
교대  ,서울특별시 서초구 서초중앙로 118,37.4858131,127.0157906
하이브랜드  ,"서울특별시 서초구 매헌로 16,",37.4625498,127.036648
신논현역  ,서울특별시 서초구 강남대로 483,37.5034796,127.0248247
영동2교  ,"서울특별시 서초구 논현로 139,",37.4768608,127.0452789
남부터미널2  ,서울특별시 서초구 효령로 274,37.484077,127.0114198
서래마을입구  ,서울특별시 서초구 서래로 48,37.49739,126.99831
몬테소리  ,서울특별시 서초구 강남대로 399,37.498235199999996,127.02682069324946
서초역  ,서울특별시 서초구 반포대로 118,37.49068235,127.00862735000001
교대법원  ,서울특별시 서초구 서초중앙로 164,37.4858131,127.0157906
강남GT타워  ,"서울특별시 서초구 서초대로 411,",37.4980633,127.02594424057872
서초동  ,"서울특별시 서초구 남부순환로339길 64,",37.4861355,127.0226379
서울교대  ,"서울특별시 서초구 서초중앙로 64,",37.4858131,127.0157906
강남에비뉴  ,"서울특별시 서초구 서초대로77길 62,",37.50272045,127.02385703514106
반포자이  ,서울특별시 서초구 잠원로 24,37.5073665,127.0098947
서이초교사거리  ,서울특별시 서초구 사임당로 143,37.4917776,127.0252692
서울웨이브아트센터  ,서울특별시 서초구 잠원로 145-35,37.5203468,127.0137877
길음역  ,서울특별시 성북구 정릉로 376,37.6046702,127.029119
미아이마트  ,서울특별시 성북구 도봉로 17,37.6094509,127.0301309
종암DT  ,서울특별시 성북구 종암로 17,37.59958,127.03421
미아  ,서울특별시 성북구 동소문로 314,37.6073574,127.0285694
성신여대정문  ,서울특별시 성북구 보문로34길 62,37.5903744,127.016807
종암  ,서울특별시 성북구 종암로 122,37.6012013,127.0339547
삼선교  ,서울특별시 성북구 동소문로 10,37.5887327,127.0073324
월곡역  ,"서울특별시 성북구 화랑로 76,",37.6018264,127.0404642
고대  ,서울특별시 성북구 고려대로24길 51,37.5838487,127.0295572
현대미아  ,서울특별시 성북구 동소문로 315,37.6073574,127.0285694
성신여대  ,서울특별시 성북구 동소문로24길 12,37.5923067,127.0188419
안암역  ,서울특별시 성북구 고려대로 102-2,37.5862314,127.0272686
한성대입구역  ,서울특별시 성북구 성북로 11,37.5932553,126.9998861
고대안암병원  ,서울특별시 성북구 고려대로 73,37.5870741,127.0258892
장위뉴타운  ,서울특별시 성북구 장월로38길 4,37.6178715,127.0518631
송파나루역DT  ,서울특별시 송파구 오금로 142,37.5087088,127.1150475
송파헬리오시티  ,서울특별시 송파구 송파대로 345,37.4980968,127.1037991
잠실시그마타워  ,서울특별시 송파구 올림픽로 289,37.5146393,127.1027979
문정법원로R  ,서울특별시 송파구 송파대로 201,37.4874239,127.1193809
송파개롱역  ,서울특별시 송파구 오금로 420,37.5087088,127.1150475
문정하비오  ,서울특별시 송파구 송파대로 111,37.4821235,127.1238883
문정역  ,서울특별시 송파구 송파대로 167,37.4852945,127.1221507
잠실대교남단R  ,서울특별시 송파구 송파대로 570,37.5155544,127.0990534
송파위례  ,서울특별시 송파구 위례광장로 230,37.4806185,127.1435202
송파방이DT  ,서울특별시 송파구 오금로 241,37.5087088,127.1150475
올림픽평화의문  ,서울특별시 송파구 위례성대로 38,37.5157618,127.1163025
송파아이파크  ,서울특별시 송파구 법원로 55,37.4797654,127.122408
송파사거리  ,서울특별시 송파구 송파대로 386,37.5150248,127.0985477
석촌서호  ,서울특별시 송파구 석촌호수로 176,37.5063926,127.0967087
문정로데오  ,서울특별시 송파구 동남로 141,37.4918211,127.126277
올림픽훼미리  ,서울특별시 송파구 중대로 68,37.4916271,127.1165168
올림픽공원남문  ,서울특별시 송파구 위례성대로 102,37.5134026,127.1231141
방이역  ,"서울특별시 송파구 마천로 53,",37.5049362,127.1341029
석촌호수  ,서울특별시 송파구 석촌호수로 262,37.5139175,127.0849709
잠실푸르지오월드  ,"서울특별시 송파구 올림픽로35가길 9,",37.5175823,127.1032186
잠실새내역  ,서울특별시 송파구 올림픽로 96,37.5255478,127.1176179
잠실역  ,서울특별시 송파구 송파대로 562,37.5151614,127.09911
갤러리아팰리스  ,"서울특별시 송파구 올림픽로 212,",37.5115825,127.0942675
아시아선수촌  ,서울특별시 송파구 백제고분로 69,37.5052873,127.1073082
올림픽아파트  ,서울특별시 송파구 양재대로 1220,37.5152532,127.1332409
가락본동  ,서울특별시 송파구 송파대로30길 13,37.4954432,127.1193753
석촌역  ,"서울특별시 송파구 백제고분로 358,",37.5052873,127.1073082
가락시장역  ,"서울특별시 송파구 중대로 121,",37.49436405,127.12143148839337
가든파이브  ,서울특별시 송파구 충민로 10,37.4781296,127.1195944
송파NC  ,서울특별시 송파구 충민로 66,37.4775778,127.1249983
송파거여역  ,서울특별시 송파구 오금로 493,37.4936455,127.1437396
몽촌토성역  ,서울특별시 송파구 위례성대로 6,37.5123161,127.1271293
송파KT  ,서울특별시 송파구 잠실로 209,37.5140396,127.1065213
송파마천사거리DT  ,서울특별시 송파구 거마로 78,37.4934449,127.1445757
목동파리공원  ,서울특별시 양천구 목동동로 377,37.5259049,126.8718078
등촌역  ,서울특별시 양천구 공항대로 566,37.5469495,126.8729398
목동행복한  ,서울특별시 양천구 목동동로 309,37.5259049,126.8718078
신정DT  ,서울특별시 양천구 신월로 341,37.5171531,126.8397244
목동역  ,서울특별시 양천구 목동로 203,37.5295532,126.8640797
목동오목로  ,서울특별시 양천구 오목로 279,37.5249601,126.8715914
목동8단지  ,서울특별시 양천구 목동서로 299,37.525344,126.8697077
오목교역  ,서울특별시 양천구 오목로 354,37.5249601,126.8715914
신월IC DT  ,서울특별시 양천구 남부순환로 430,37.5195455,126.8384331
목동7단지  ,서울특별시 양천구 목동서로 213,37.525344,126.8697077
목동5단지  ,"서울특별시 양천구 목동동로 411,",37.5259049,126.8718078
목동  ,서울특별시 양천구 목동서로 67,37.5365304,126.8787851
현대목동  ,서울특별시 양천구 목동동로 257,37.526657,126.8748737
목동파라곤  ,"서울특별시 양천구 목동서로 155,",37.525344,126.8697077
목동트라팰리스  ,서울특별시 양천구 오목로 299,37.5249601,126.8715914
목동10단지  ,서울특별시 양천구 목동서로 401,37.525344,126.8697077
신월동DT  ,서울특별시 양천구 남부순환로 319,37.5195455,126.8384331
타임스퀘어R  ,서울특별시 영등포구 영중로 15,37.517527,126.9061017
샛강역  ,서울특별시 영등포구 여의대방로 376,37.5097471,126.9241921
영등포역  ,서울특별시 영등포구 경인로 870,37.5179124,126.9113028
당산대로  ,서울특별시 영등포구 양평로 22,37.534826,126.9000655
여의도IFC몰(L1)R  ,서울특별시 영등포구 국제금융로 10,37.52538915,126.92663352616975
여의도KBS R  ,서울특별시 영등포구 의사당대로 26,37.5242788,126.9219406
여의도화재보험  ,서울특별시 영등포구 국제금융로6길 38,37.5218503,126.9275174
국회대로  ,서울특별시 영등포구 국회대로 786,37.5302265,126.8905587
영등포KT  ,서울특별시 영등포구 영중로 119,37.517527,126.9061017
여의도공원R  ,서울특별시 영등포구 여의공원로 101,37.5280541,126.9243026367615
국회의사당역  ,서울특별시 영등포구 의사당대로 8,37.5217314,126.9243328
선유도역  ,서울특별시 영등포구 양평로 115,37.534826,126.9000655
여의도역R  ,서울특별시 영등포구 의사당대로 83,37.5242788,126.9219406
선유동이레빌딩  ,서울특별시 영등포구 선유동2로 57,37.5307825,126.8954037
동여의도  ,서울특별시 영등포구 국제금융로 86,37.5174664,126.9350739
여의도ABL타워  ,서울특별시 영등포구 의사당대로 147,37.5242788,126.9219406
영등포신길  ,서울특별시 영등포구 신길로 137,37.5045942,126.91002563661435
문래역  ,서울특별시 영등포구 당산로 34,37.5340859,126.9019328
당산  ,서울특별시 영등포구 양평로 64,37.534826,126.9000655
여의도한양증권  ,서울특별시 영등포구 국제금융로6길 7,37.5218503,126.9275174
여의도일신  ,서울특별시 영등포구 은행로 11,37.5281915,126.9213641
신세계타임스퀘어B2  ,"서울특별시 영등포구 영중로 9,",37.5311849,126.9057521
하이테크시티  ,서울특별시 영등포구 경인로 775,37.5179124,126.9113028
여의도  ,서울특별시 영등포구 국제금융로2길 28,37.5240224,126.925446
롯데캐슬여의도  ,서울특별시 영등포구 의사당대로 127,37.520263,126.926291
문래동  ,"서울특별시 영등포구 선유로 64,",37.5416929,126.9021967
신세계타임스퀘어1F  ,"서울특별시 영등포구 영중로 9,",37.5311849,126.9057521
여의도호성  ,"서울특별시 영등포구 여의대방로65길 24,",37.5196606,126.9296625
타임스퀘어B2  ,"서울특별시 영등포구 영중로 15,",37.517527,126.9061017
영등포본동  ,서울특별시 영등포구 영등포로 254,37.5232395,126.8837803
타임스퀘어2F  ,서울특별시 영등포구 영중로 15,37.517527,126.9061017
여의도의사당  ,"서울특별시 영등포구 국회대로74길 12,",37.5300785,126.9210460623866
여의도IFC(1F)  ,서울특별시 영등포구 국제금융로 10,37.52538915,126.92663352616975
여의도신한금융투자타워  ,서울특별시 영등포구 여의대로 70,37.523026,126.9195396
선유도역 1번출구  ,서울특별시 영등포구 양평로 128,37.534826,126.9000655
영등포시장역  ,서울특별시 영등포구 영중로 79,37.523462800000004,126.90492254720982
영등포구청역  ,서울특별시 영등포구 국회대로 558,37.5302265,126.8905587
서울양평역  ,서울특별시 영등포구 선유서로24길 6,37.5236635,126.8874616
영등포시장교차로  ,서울특별시 영등포구 영중로 45,37.517527,126.9061017
더현대서울(B2)R  ,서울특별시 영등포구 여의대로 108,37.526659949999996,126.92720561670195
당산역사거리  ,서울특별시 영등포구 양평로 47,37.534826,126.9000655
불광역  ,서울특별시 은평구 통일로 715,37.6409267,126.9158024
구파발사거리  ,서울특별시 은평구 진관3로 21,37.6390892,126.9182425
연신내역사거리  ,서울특별시 은평구 통일로 842,37.6409267,126.9158024
연신내  ,서울특별시 은평구 통일로 867,37.6409267,126.9158024
구파발역  ,서울특별시 은평구 진관2로 12,37.634362,126.9184124
은평구청입구  ,서울특별시 은평구 은평로 170,37.6011049,126.9264727
은평이마트  ,서울특별시 은평구 은평로 111,37.6003292,126.92022829345238
구산역  ,서울특별시 은평구 연서로 146,37.6094,126.9162
수색  ,서울특별시 은평구 수색로 216,37.5897667,126.8840132
진관DT  ,서울특별시 은평구 연서로 645,37.6094,126.9162
연합뉴스  ,서울특별시 종로구 율곡로2길 25,37.5751512,126.9805493
혜화역  ,서울특별시 종로구 대학로12길 4,37.5808672,127.003829
경희궁로  ,서울특별시 종로구 새문안로3길 15,37.5731009,126.9726539
강북삼성병원  ,서울특별시 종로구 새문안로 29,37.56844945,126.96758766044884
종로평창동  ,서울특별시 종로구 평창12길 3,37.606912,126.9670783
광화문우체국  ,서울특별시 종로구 종로 6,37.56978115,126.97801417075709
더종로R  ,서울특별시 종로구 종로 51,37.5707012,126.98356491452141
독립문역  ,서울특별시 종로구 송월길 155,37.5704666,126.9654458
정부서울청사R  ,서울특별시 종로구 새문안로5가길 28,37.574181,126.9730103
동묘앞역  ,서울특별시 종로구 종로 344,37.5710709,127.0038782
종로구청  ,서울특별시 종로구 삼봉로 71,37.57261775,126.98113615
북촌로  ,서울특별시 종로구 북촌로4길 23,37.5793892,126.9863284
종로수송  ,서울특별시 종로구 종로5길 30,37.57163845,126.98066806731367
새문안로  ,서울특별시 종로구 새문안로 92,37.5694219,126.9705729
안국  ,서울특별시 종로구 북촌로 5-1,37.58719,126.98236
삼청동  ,서울특별시 종로구 삼청로 111-1,37.585359100000005,126.98182730834799
광화문D타워  ,서울특별시 종로구 종로3길 17,37.57111615,126.9789131710913
적선  ,"서울특별시 종로구 새문안로5길 55,",37.575065699999996,126.97392084738038
인사  ,서울특별시 종로구 인사동길 14,37.57248195,126.98731300140417
광화문  ,서울특별시 종로구 세종대로 167,37.571205,126.9762911
성대입구  ,서울특별시 종로구 창경궁로 235,37.568963,126.997927
스페이스본  ,서울특별시 종로구 사직로8길 4,37.5744515,126.9688493
주얼리시티  ,서울특별시 종로구 종로 183,37.5710709,127.0038782
종각  ,서울특별시 종로구 종로 64,37.5705528,126.9845205
동숭로아트  ,서울특별시 종로구 동숭길 110,37.5814585,127.0041529
종로관철  ,"서울특별시 종로구 종로12길 21,",37.5697352,126.9857522
경복궁역  ,"서울특별시 종로구 자하문로4길 6,",37.5771689,126.9726386
이마빌딩  ,서울특별시 종로구 종로1길 42,37.57388385,126.9789907000422
마로니에공원  ,"서울특별시 종로구 대학로 116,",37.5815186,127.0022833
종로3가  ,"서울특별시 종로구 종로 113-1,",37.5710709,127.0038782
대학로  ,"서울특별시 종로구 대학로 57,",37.576675,127.0019086
경복궁사거리  ,"서울특별시 종로구 율곡로 6,",37.57516535,126.98011554322946
종로관수  ,서울특별시 종로구 삼일대로20길 13,37.5694756,126.9885482
정동  ,서울특별시 종로구 새문안로 42,37.5694219,126.9705729
종로플레이스  ,서울특별시 종로구 창경궁로 120,37.568963,126.997927
강북삼성병원1층  ,서울특별시 종로구 새문안로 29,37.56844945,126.96758766044884
동숭길입구  ,서울특별시 종로구 대학로 146,37.5842131,127.0019032
서울대치과병원  ,서울특별시 종로구 대학로 101,37.5790649,126.99872502886831
서대문역  ,서울특별시 종로구 통일로 134,37.57825,126.95416
숭례문북창  ,서울특별시 중구 세종대로12길 12,37.56165405,126.97693299870735
을지로4가역  ,서울특별시 중구 을지로 170,37.5664338,126.9953073
동대문두타  ,서울특별시 중구 장충단로 275,37.56866205,127.00871843983305
대한상공회의소R  ,서울특별시 중구 세종대로 39,37.5625599,126.9762094
국립중앙의료원  ,서울특별시 중구 을지로 251,37.5664338,126.9953073
동국대  ,서울 중구 서애로1길 11,37.56131545,126.9985308123982
신세계본점5F  ,서울특별시 중구 소공로 63,37.5602936,126.9805031
을지로내외빌딩R  ,서울특별시 중구 을지로 51,37.5664338,126.9953073
대우재단빌딩  ,서울특별시 중구 퇴계로 18,37.5611737,126.9886592
동대문공원  ,서울특별시 중구 장충단로 229,37.5600976,127.005614
을지로국제빌딩  ,서울특별시 중구 남대문로 109,37.5658994,126.9826051
동대입구역  ,서울특별시 중구 장충단로 166,37.5600976,127.005614
신당역사거리  ,서울특별시 중구 다산로 258,37.5629975,127.0153812
연세세브란스  ,서울특별시 중구 통일로 10,37.5572801,126.9722447
회현역  ,서울특별시 중구 퇴계로 72,37.5611737,126.9886592
을지로경기빌딩  ,서울특별시 중구 남대문로10길 9,37.5679769,126.9857576
을지로2가  ,서울특별시 중구 삼일대로 358,37.5664753,126.9879975
신세계본점6F  ,서울특별시 중구 퇴계로 77,37.5611737,126.9886592
서울중앙우체국  ,서울특별시 중구 소공로 70,37.56161555,126.98215850934079
한국프레스센터  ,서울특별시 중구 세종대로 124,37.5625599,126.9762094
명동중앙로  ,서울특별시 중구 명동길 60,37.5638495,126.9851142
약수역  ,서울특별시 중구 다산로 129,37.555337,127.0107752
중구저동  ,서울특별시 중구 수표로 34,37.567547,126.9896042
명동길  ,서울특별시 중구 명동10길 41,37.5622961,126.9859357
서소문로  ,서울특별시 중구 서소문로 120,37.5639217,126.9765271
신당역  ,"서울특별시 중구 퇴계로 385,",37.5611737,126.9886592
명동메트로  ,서울특별시 중구 명동9가길 14,37.5649181,126.9834904
숭례문  ,"서울특별시 중구 세종대로 17,",37.5625599,126.9762094
순화동더샵  ,"서울특별시 중구 칠패로 27,",37.55971,126.97287
대한극장  ,서울특별시 중구 퇴계로 212,37.5611592,126.9953237
환구단  ,서울특별시 중구 소공로 112,37.5567751,126.9830055
무교동  ,서울특별시 중구 무교로 21,37.5675475,126.9791037
문화일보  ,서울특별시 중구 새문안로 22,37.5661569,126.9671166
태평로  ,"서울특별시 중구 세종대로 72,",37.5625093,126.9766814
퍼시픽타워  ,"서울특별시 중구 세종대로9길 41,",37.5623581,126.9734229
남산단암  ,"서울특별시 중구 소월로 10,",37.5585473,126.9754142
황학캐슬  ,서울특별시 중구 청계천로 400,37.5708427,127.0228252
을지로삼화타워  ,서울특별시 중구 을지로5길 16,37.56697965,126.98490780112999
소공로  ,"서울특별시 중구 남대문로7길 19,",37.5637679,126.9816538
서소문배재  ,서울특별시 중구 서소문로 99,37.5639217,126.9765271
을지로한국빌딩  ,"서울특별시 중구 을지로 50,",37.5664338,126.9953073
KG타워  ,서울특별시 중구 통일로 92,37.5572801,126.9722447
시청  ,"서울특별시 중구 을지로 19,",37.56625735,126.97986476331938
충무로역  ,"서울특별시 중구 퇴계로 197,",37.5611737,126.9886592
명동역  ,"서울특별시 중구 퇴계로 101,",37.5611737,126.9886592
명동입구  ,서울특별시 중구 남대문로 68-1,37.5604945,126.9751716
무교로  ,서울특별시 중구 무교로 15,37.5675475,126.9791037
청계크리스탈스퀘어  ,서울특별시 중구 청계천로 106,37.5716812,127.0211718
숭례문SG타워  ,서울특별시 중구 세종대로 14,37.5625599,126.9762094
레스케이프호텔R  ,서울특별시 중구 퇴계로 67,37.5611737,126.9886592
별다방  ,서울특별시 중구 퇴계로 100,37.5602936,126.982951
포포인츠명동  ,서울특별시 중구 삼일대로10길 36,37.56566367979,126.98729161514
명동남산  ,서울특별시 중구 퇴계로 132,37.5611737,126.9886592
명일역  ,서울특별시 강동구 양재대로 1647,37.5278376,127.1362641
강동구청DT  ,서울특별시 강동구 성내로 32,37.52893,127.12503
강동암사DT  ,서울특별시 강동구 고덕로 43,37.556801,127.1668589
굽은다리역  ,서울특별시 강동구 양재대로 1568,37.5278376,127.1362641
강동역  ,서울특별시 강동구 천호대로 1089,37.5377854,127.1265483
둔촌동  ,서울특별시 강동구 양재대로 1303,37.5278376,127.1362641
천호로데오  ,서울특별시 강동구 천호대로 1037,37.5377854,127.1265483
천호이마트  ,서울특별시 강동구 천호대로 1015-14,37.5377854,127.1265483
길동역  ,서울특별시 강동구 양재대로 1487,37.5278376,127.1362641
상일동  ,"서울특별시 강동구 상일로10길 36,",37.550751,127.1745791
천호역  ,"서울특별시 강동구 천호대로 1012,",37.5377854,127.1265483
명일이마트  ,서울특별시 강동구 동남로75길 5,37.5541673,127.1562194
상일동역  ,서울특별시 강동구 고덕로 399,37.556801,127.1668589
천호사거리  ,서울특별시 강동구 올림픽로 651,37.54128,127.12434
강일역  ,서울특별시 강동구 고덕로 429,37.556801,127.1668589
올림픽공원북2문  ,서울특별시 강동구 강동대로 199,37.5193075,127.1389257
천호대로길동  ,서울특별시 강동구 천호대로 1131,37.5377854,127.1265483
신도림  ,서울특별시 구로구 경인로 610,37.5104891,126.8909341
구로디지털타워  ,서울특별시 구로구 디지털로32길 30,37.4831573,126.8997762
오류동역  ,서울특별시 구로구 경인로 216,37.5104891,126.8909341
구로디지털로  ,"서울특별시 구로구 디지털로33길 11,",37.4858907,126.8955448
구로에이스  ,"서울특별시 구로구 디지털로 285,",37.4873082,126.8975357
구로하이엔드  ,"서울특별시 구로구 디지털로26길 5,",37.48081,126.89595
현대디큐브2F  ,서울특별시 구로구 경인로 662,37.5104891,126.8909341
구로호텔  ,"서울특별시 구로구 디지털로32길 72,",37.4831573,126.8997762
현대디큐브B2  ,서울특별시 구로구 경인로 662,37.5104891,126.8909341
구로고척  ,서울특별시 구로구 경인로 387,37.5104891,126.8909341
구로NC  ,서울특별시 구로구 구로중앙로 152,37.50727,126.87479
구로구청  ,서울특별시 구로구 가마산로 232,37.4879731,126.8804447
답십리역  ,서울특별시 동대문구 천호대로 263,37.5744199,127.0257949
경희대삼거리  ,서울특별시 동대문구 회기로 141,37.5899435,127.0567032
외대정문  ,서울특별시 동대문구 이문로 93,37.5932665,127.058122
신설동역  ,서울특별시 동대문구 왕산로 19,37.58674,127.05237
회기역사거리  ,서울특별시 동대문구 이문로 37,37.5932665,127.058122
외대  ,서울특별시 동대문구 휘경로 12-1,37.5947457,127.0634975
장한평역  ,서울특별시 동대문구 장한로 10,37.5687297,127.0694493
경희대  ,서울특별시 동대문구 경희대로 16-1,37.592826200000005,127.05276446099592
청량리역사  ,서울특별시 동대문구 왕산로 214,37.5805961,127.0482573
서울숲역  ,서울특별시 성동구 왕십리로 50,37.549734,127.0441677
금호역  ,서울특별시 성동구 동호로 99,37.549196,127.0152352
뚝섬역  ,서울특별시 성동구 아차산로 42,37.542457,127.0633511
황학사거리  ,서울특별시 성동구 왕십리로 410,37.549734,127.0441677
성수역  ,서울특별시 성동구 성수이로 94,37.542162,127.0562487
상왕십리역  ,서울특별시 성동구 왕십리로 382,37.5650266,127.0279138
왕십리역  ,서울특별시 성동구 왕십리로 326,37.549734,127.0441677
한양대  ,서울특별시 성동구 왕십리로 225,37.549734,127.0441677
엔터식스  ,서울특별시 성동구 왕십리광장로 17,37.5612222,127.0371358
성수이마트  ,서울특별시 성동구 뚝섬로 379,37.5453134,127.0264232
성수  ,서울특별시 성동구 아차산로 104,37.542457,127.0633511
옥수  ,서울특별시 성동구 독서당로 202,37.5477024,127.0207921
성수낙낙  ,서울특별시 성동구 광나루로8길 31,37.5470447,127.0663778
효창공원앞역  ,서울특별시 용산구 백범로 313,37.5400102,126.9596662
서울역서부  ,서울특별시 용산구 만리재로 202,37.5552616,126.968931
이태원역  ,서울특별시 용산구 이태원로 188,37.5342621,126.9949041
한강진역R  ,서울특별시 용산구 이태원로 252,37.5342986,126.9908797
용산역써밋R  ,서울특별시 용산구 한강대로 69,37.5436856,126.9722081
이촌  ,서울특별시 용산구 이촌로 276,37.5178303,126.9851321
신용산역  ,서울특별시 용산구 한강대로 95,37.5436856,126.9722081
용산파크타워  ,서울특별시 용산구 서빙고로 67,37.5203054,126.9906594
남영동  ,서울특별시 용산구 한강대로 275,37.5436856,126.9722081
한남동R  ,서울특별시 용산구 독서당로 94,37.5311476,127.0077012
서울타워  ,서울특별시 용산구 남산공원길 105,37.551247399999994,126.98826417599432
서울역동자동  ,서울특별시 용산구 한강대로 372,37.55104665,126.97354404690134
순천향입구  ,서울특별시 용산구 대사관로 67,37.5349071,126.9993428
숙대  ,서울특별시 용산구 청파로47길 57,37.5441792,126.9678897
동빙고  ,서울특별시 용산구 장문로 12,37.5290421,126.9918051
숙대입구역  ,서울특별시 용산구 한강대로 291,37.5436856,126.9722081
용산아이파크몰  ,서울특별시 용산구 한강대로23길 55,37.5301906,126.9651428
동부이촌동  ,서울특별시 용산구 이촌로 198,37.5178303,126.9851321
용산해링턴스퀘어  ,서울특별시 용산구 서빙고로 17,37.5203054,126.9906594
경리단길  ,서울특별시 용산구 회나무로 3,37.5384691,126.9873413
서울역사  ,서울특별시 용산구 한강대로 405,37.5545547,126.9707793
용산리첸시아  ,서울특별시 용산구 백범로 341,37.5400102,126.9596662
포포인츠서울역  ,서울특별시 용산구 한강대로 366,37.5436856,126.9722081
용산전자랜드  ,서울특별시 용산구 청파로 74,37.536619,126.9706533
상봉  ,서울특별시 중랑구 상봉로 131,37.5981883,127.0928622
중랑역  ,서울특별시 중랑구 망우로30길 3,37.5930974,127.0747897
중랑구청  ,서울특별시 중랑구 신내로 72,37.6000642,127.0970247
사가정역  ,서울특별시 중랑구 면목로 310,37.5963518,127.0855162
상봉역  ,서울특별시 중랑구 망우로 307,37.5928724,127.0719547
묵동  ,서울특별시 중랑구 동일로 952,37.6157847,127.0758096
중화역  ,서울특별시 중랑구 봉화산로 35,37.6073948,127.0979785
