,name,address,longitude,latitude
0,수락산,서울특별시 노원구 동일로 1669,127.0734496,37.6242653
1,고려대,서울 성북구 고려대로 24길 20,37.585349,127.029189
2,가락시장,서울시 송파구 중대로 109 (대동빌딩 1층),127.13288,37.50753
3,망원한강공원,서울 마포구 마포나루길 407,37.5535557,126.897459
4,가산그레이트밸리,서울 금천구 디지털로9길 32,126.88525,37.48195
5,서울시립대학교,서울특별시 동대문구 서울시립대로 163,127.05917537929685,37.58302005
6,방학역,서울특별시 도봉구 도봉로 684,127.0455927,37.6806064
7,덕성여대,서울특별시 도봉구 삼양로 538,127.0142841,37.6568276
8,중곡역,서울시 광진구 중곡동 30-80,127.078978,37.5536366
9,충무로,서울 중구 퇴계로 197,126.9886592,37.5611737
10,신림,서울 관악구 신림로 318,126.9387142,37.470773
11,은평구청,서울시 은평구 은평로 200-1,126.9166034,37.5992011
12,중계은행사거리,서울특별시 노원구 한글비석로 269,127.07371,37.65887
13,테헤란로,서울특별시 강남구 테헤란로 314 지하1층,127.0565359,37.5069402
14,상봉역,서울특별시 중랑구 망우로 316,127.08767114880168,37.596531999999996
15,신정네거리역,서울특별시 양천구 중앙로 265,126.8517014,37.5226024
16,애오개역,서울특별시 마포구 마포대로 180,126.9434293,37.5379407
17,정릉,서울 성북구 보국문로 40,127.01022,37.6083633
18,신금호역,서울 성동구 금호로 173,127.0245086,37.5451699
19,천호역,서울 강동구 천호대로 1012,127.1265483,37.5377854
20,학동역,서울 강남구 학동로 171,127.056947,37.5199698
21,노량진역,서울 동작구 노량진로 152-1,126.9543166,37.5125967
22,상일동,서울특별시 강동구 상일로6길 21,127.1772325,37.5502896
23,구로NC,서울특별시 구로구 구로중앙로 152,126.87479,37.50727
24,묵동,서울특별시 중랑구 동일로 952 101-1호,127.0758096,37.6157847
25,등촌역,서울특별시 양천구 공항대로 552 101호,126.8670227,37.54955
26,수서역,서울특별시 강남구 밤고개로 1길 10,37.4879932,127.101744
27,길동역,"서울특별시 강동구 길동 389-2 길동 1층 103,110호",127.14703,37.53736
28,석촌역,"서울특별시 송파구 송파대로 438 106호, 107호",127.0985477,37.5150248
29,쌍문역,"서울특별시 도봉구 도봉로 468 1층 102호, 102-1호",127.0455927,37.6806064
30,명지대,서울특별시 서대문구 거북골로 23,126.9081221,37.5789414
31,삼양솔샘,서울특별시 강북구 삼양로 162,127.02163929170591,37.61841975
32,낙성대역,서울특별시 관악구 남부순환로 1904,126.96068118423008,37.477946849999995
33,봉은사역,서울특별시 강남구 봉은사로 627,127.05643,37.5135682
34,석촌호수,서울특별시 송파구 석촌호수로 298,127.1082504,37.5116813
35,대림삼거리,서울특별시 영등포구 시흥대로 681 삼성YJ그랜드빌딩 신관동 1층,126.9091454,37.4923428
36,왕십리역,서울특별시 성동구 왕십리로 328,127.0333767,37.5627884
37,포이사거리,서울특별시 강남구 논현로 84 1층,127.0361212,37.5025503
38,동덕여대,서울특별시 성북구 화랑로13길 10,127.0408928,37.6071978
39,당산역,서울특별시 영등포구 양평로 58,126.9000655,37.534826
40,송파역,서울특별시 송파구 송파대로 374,127.0985477,37.5150248
41,선유도역,서울특별시 영등포구 양평로 121,126.9000655,37.534826
42,잠실역,서울특별시 송파구 올림픽로 293-19,127.1176179,37.5255478
43,독립문,서울특별시 종로구 송월길 155 경희궁자이4단지 상가 1층 4104-4106호,126.9654458,37.5704666
44,가양역,서울특별시 강서구 양천로 470 그레이스힐,126.8167715,37.5733438
45,양천향교역,"서울특별시 강서구 강서로 471 엠코지니어스타 A동 1층 109, 110호",126.8481558,37.5292654
46,정동,서울특별시 중구 새문안로 30,126.9671166,37.5661569
47,여의도화재보험,서울특별시 영등포구 국제금융로 6길 38,37.5215111,126.926304
48,선정릉역,서울특별시 강남구 봉은사로 328,127.05643,37.5135682
49,약수역,서울특별시 중구 다산로 153,127.0153812,37.5629975
50,동대문역,서울특별시 종로구 종로 263-1,127.0038782,37.5710709
51,장안사거리,서울특별시 동대문구 답십리로 293,127.04673,37.57646
52,군자역,서울특별시 광진구 능동로 290 삼일빌딩,127.0772581,37.5529046
53,신설동역,서울특별시 동대문구 왕산로 15-1,127.05237,37.58674
54,동양미래대,서울특별시 구로구 경인로 445 동양미래대 8호관,126.8909341,37.5104891
55,고덕역,서울특별시 강동구 동남로 75길 13-10,37.5538798,127.155045
56,상암DMC푸르지오시티,서울특별시 마포구 월드컵북로54길 25 상암DMC 푸르지오시티 103호,126.889349,37.5813028
57,광장,서울특별시 광진구 아차산로 480,127.105331,37.5461477
58,신논현,서울특별시 서초구 강남대로 499,127.0248247,37.5034796
59,압구정역,서울특별시 강남구 압구정로 28길 13,37.5256676,127.027832
60,서초법원,서울특별시 서초구 법원로1길 1,127.0094331,37.4930819
61,선릉,서울특별시 강남구 테헤란로 337,127.0565359,37.5069402
62,가산디지털단지,서울특별시 금천구 가산디지털1로 165 가산비지니스센터 102호,126.88714,37.46781
63,언주역,서울특별시 강남구 봉은사로 206 대명빌딩,127.05643,37.5135682
64,여의도KBS 본관,서울특별시 영등포구 국회대로62길 25 교육시설재난공제회관,126.9177055,37.5258891
65,독산,서울특별시 금천구 시흥대로 399 1층 112호,126.897385,37.469434
66,발산역,서울특별시 강서구 마곡중앙6로 93,126.8379486,37.5603203
67,문정역,서울특별시 송파구 법원로 114 현대엠스테이트 C동 119호,127.1202013,37.4846593
68,문래,서울특별시 영등포구 선유로 70,126.9021967,37.5416929
69,삼성,서울특별시 강남구 삼성로 520,127.0566608,37.5067233
70,노량진,서울특별시 동작구 노량진로 166,126.9543166,37.5125967
71,여의도국회의사당,서울특별시 영등포구 국회대로 70길 19,37.52922,126.920798
72,역삼,서울특별시 강남구 테헤란로 25길 20,37.5016179,127.035615
73,강동성심병원,서울특별시 강동구 성안로 147,127.135603,37.537929
74,천호,서울특별시 강동구 올림픽로 664,127.12434,37.54128
75,양천구청,서울특별시 양천구 목동서로 349 센트럴프라자,126.8697077,37.525344
76,강남우성,서울특별시 강남구 강남대로66길 6,127.0316693,37.4918579
77,논현역,서울특별시 서초구 강남대로 535 프린스빌딩,127.0248247,37.5034796
78,영등포,서울특별시 영등포구 영중로 25,126.9061017,37.517527
79,잠실새내역,서울특별시 송파구 올림픽로 130,127.1176179,37.5255478
80,보라매,서울특별시 동작구 보라매로3길 29 해태보라매타워,126.9251466,37.4913742
81,문정법조,서울특별시 송파구 충민로 5 송파한화오벨리스크,127.11926325196302,37.480105800000004
82,신림역,서울특별시 관악구 신림로 344 SK허브그린,126.9300525,37.485157799999996
83,오목교,서울특별시 양천구 오목로 315,126.8715914,37.5249601
84,목동역,서울특별시 양천구 오목로 238 론드사옥,126.8715914,37.5249601
85,교대,서울특별시 서초구 서초중앙로22길 47 문화빌딩,127.0189385,37.4942201
86,신사,서울특별시 강남구 도산대로 124 대영빌딩,127.0281081,37.51962
87,대청,서울특별시 강남구 일원로3길 4,127.08381,37.49241
88,숭실대,서울특별시 동작구 사당로 12-1,126.9608044,37.4946982
89,화곡역,서울특별시 강서구 강서로 159-1,126.8352338,37.5508352
90,방배,서울특별시 서초구 효령로 111 1층,127.0114198,37.484077
91,중앙대,서울특별시 동작구 흑석로 79,126.9500303,37.5044873
92,서울대,서울특별시 관악구 관악로 156,126.9564157,37.4908796
93,구로디지털,서울특별시 구로구 디지털로34길 55 코오롱싸이언스밸리 2차 109호,126.89923622330221,37.4841277
94,강남역,서울특별시 강남구 강남대로96길 12,127.0280578,37.4998794
95,구산역,서울특별시 은평구 서오릉로 150,126.9235907,37.6043279
96,동대문역사문화공원역,서울특별시 중구 장충단로 227-2 1~2F,127.005614,37.5600976
97,국민대학교,서울특별시 성북구 정릉로 77,126.9959431,37.6102921
98,명동성당,서울특별시 중구 명동길 74 명동성당 B118호,126.98601834486585,37.563361900000004
99,건대입구,서울특별시 광진구 아차산로 241 연한빌딩 102호,127.105331,37.5461477
100,성수역,서울특별시 성동구 아차산로 113,127.0633511,37.542457
101,상왕십리,서울 성동구 상왕십리동 806-2 센트라스,127.0387621,37.5604135
102,서울숲,서울특별시 성동구 왕십리로 108-1,127.0441677,37.549734
103,아차산역,서울특별시 광진구 천호대로 666,127.0806118,37.5566093
104,북촌,서울특별시 종로구 율곡로 67,126.9866606,37.5773655
105,용산아이파크몰,서울특별시 용산구 한강대로23길 55,126.9651428,37.5301906
106,미아역,서울특별시 강북구 도봉로 209,127.0288685,37.6198903
107,용산전자랜드,서울특별시 용산구 청파로 74 전자랜드 본관 A동 104호,126.9706533,37.536619
108,응암,서울특별시 은평구 은평로 108 101호,126.9159238,37.599088
109,강변역,서울특별시 광진구 강변역로4길 10,127.0923566,37.5335464
110,광운대역,서울특별시 노원구 광운로 57,127.05812,37.6196
111,구의,서울특별시 광진구 자양로 113 구의 현대 하이엘 103-4호,127.0830614590785,37.537900699999994
112,마포구청,서울특별시 마포구 월드컵로 34길 7,37.5650481,126.903057
113,신당역,서울특별시 중구 퇴계로 388,126.9886592,37.5611737
114,수유역,서울특별시 강북구 오패산로 417,127.03271,37.61982
115,뚝섬유원지역,"서울특별시 광진구 뚝섬로34길 67 광진트라팰리스 101호, 102호",127.06834664793004,37.531672799999996
116,길음뉴타운,서울특별시 성북구 길음로 7길 6,37.6042891,127.022424
117,공덕역롯데캐슬,서울특별시 마포구 마포대로 109 롯데캐슬프레지던트,126.9506748,37.5447608
118,망우,서울특별시 중랑구 용마산로115길 127 한일써너스빌리젠시 1단지,127.097548,37.5985619
119,홍대아트,서울특별시 마포구 와우산로 117 102호,126.92638940039635,37.553411
120,성균관대,서울특별시 종로구 성균관로 41,126.9976609,37.5894396
121,중랑역,서울특별시 중랑구 망우로 203,127.0754321,37.5942221
122,한남,서울특별시 용산구 대사관로 63,126.9993428,37.5349071
123,상수역,서울특별시 마포구 와우산로 44 1층,126.9222125,37.5494357
124,을지로3가,서울특별시 중구 을지로 103-1,127.0108176,37.5650256
125,회현,서울특별시 중구 소공로 35 남산롯데캐슬아이리스,126.9820068,37.5602684
126,연신내,서울특별시 은평구 연서로 215-1,126.9162,37.6094
127,홍제,서울특별시 서대문구 통일로 432-1 1층,126.9474,37.58578
128,미아사거리역,서울특별시 강북구 도봉로 41-1,127.0288685,37.6198903
129,신촌로데오,서울특별시 서대문구 연세로 23,126.9369239,37.5600406
130,순화동라마다,서울특별시 중구 칠패로 27 순화동 the# 주상복합,126.97287,37.55971
131,을지로입구,서울특별시 중구 남대문로 112,126.9826051,37.5658994
132,가재울,서울특별시 서대문구 수색로 100 DMC래미안 e편한세상,126.9027849,37.5772579
133,종로5가,서울특별시 종로구 종로 213-1,127.0038782,37.5710709
134,성신여대,서울특별시 성북구 보문로 34길 78,37.5911442,127.019567
135,합정역메세나폴리스,서울특별시 마포구 양화로 45 메세나폴리스,126.9139625,37.5502395
136,한성대,서울특별시 성북구 동소문로 10,127.0073324,37.5887327
137,노원,서울특별시 노원구 노해로 502,127.0589604,37.6539346
138,광화문,서울특별시 종로구 새문안로 3길 19,37.5719961,126.972506
139,이대,서울특별시 서대문구 이화여대7길 30,126.9439907,37.5587467
140,대학로,서울특별시 종로구 동숭길 101 현대엘리베이터,127.0041529,37.5814585
141,경복궁,서울특별시 종로구 사직로 115,126.9739273,37.5762357
142,연희,서울특별시 서대문구 연희로 93 연희오피스텔,126.9296422,37.5661095
143,남영역,서울특별시 용산구 한강대로 271,126.9724505,37.5423841
144,구파발역,서울특별시 은평구 진관2로 29-21 드림스퀘어,126.9192325,37.6356691
145,상암,서울특별시 마포구 월드컵북로 361 DMC 이안상암2단지,126.915841,37.5610387
146,경희대,서울특별시 동대문구 회기동 16-70,127.05178,37.59433
147,공릉,서울특별시 노원구 공릉로 207,127.06673,37.64522
148,연세대,서울특별시 서대문구 연세로 50-1 연세공학원,126.94057026888541,37.562258400000005
149,종암,서울 성북구 종암로 110,127.03421,37.59958
150,충정로,서울특별시 서대문구 충정로 23 풍산빌딩 지하 2층,126.96287808854686,37.56101865
151,세종대,서울특별시 광진구 광나루로 390,127.0927273,37.5439347
152,망원역,서울특별시 마포구 월드컵로 87 마포로얄프라자,126.9107114,37.5554052
153,시청,서울특별시 중구 세종대로 68 천일빌딩,126.97665558911066,37.56227605
154,안국,서울특별시 종로구 우정국로 69 동일빌딩,126.9829186,37.5710358
155,서울역동자,서울특별시 용산구 후암로 107 게이트웨이타워,126.9747543,37.5534973
156,마포,서울특별시 마포구 마포대로 53 마포트라팰리스,126.9434293,37.5379407
157,숙명여대,서울특별시 용산구 청파로47길 42,126.9678897,37.5441792
158,신촌,서울특별시 서대문구 신촌로 121 아남오피스텔,126.9367767,37.5552729
159,외대,서울특별시 동대문구 이문로 116,127.058122,37.5932665
160,홍대,서울특별시 마포구 홍익로 10,126.92289894999999,37.5533059
161,종로,서울특별시 종로구 종로 77 통일빌딩,127.0038782,37.5710709
162,한양대,서울특별시 성동구 마조로11,37.5589918,127.040655
163,성대,서울특별시 종로구 창경궁로 234 동화빌딩,126.997927,37.568963
